C/1995 O1 (Hale-Bopp),e,89.4397,282.3793,130.5313,178.9199,0.0004118,0.99493492,0.0000,03/31.2852/1997,2000,g -2.0,4.0
P/1996 A1 (Jedicke),e,6.6147,248.7965,223.7562,7.238823,0.0506060,0.43685041,300.2323,08/27.0/2011,2000,g  7.0,4.0
P/1996 R2 (Lagerkvist),e,2.6039,40.1949,334.0075,3.787932,0.1336906,0.31047246,353.1660,08/27.0/2011,2000,g 11.5,4.0
P/1997 C1 (Gehrels),e,2.8575,225.3262,211.2242,6.797541,0.0556130,0.47048169,321.9876,08/27.0/2011,2000,g  8.0,4.0
P/1997 T3 (Lagerkvist-Carsenty),e,4.8470,63.1560,333.7128,6.663052,0.0573052,0.36478886,282.7380,08/27.0/2011,2000,g 13.0,2.0
P/1998 U3 (Jager),e,19.0553,303.4545,180.8347,6.116331,0.0651580,0.64758335,299.3154,08/27.0/2011,2000,g  6.5,4.0
P/1998 VS24 (LINEAR),e,5.0261,159.1662,244.6811,4.525069,0.1023920,0.24316090,121.5659,08/27.0/2011,2000,g 13.0,2.0
P/1999 XN120 (Catalina),e,5.0250,285.3728,161.6274,4.188192,0.1149911,0.21190293,116.9582,08/27.0/2011,2000,g 13.5,2.0
C/2002 VQ94 (LINEAR),e,70.6249,34.9944,99.9901,189.1060,0.0003790,0.96409620,0.7685,08/27.0/2011,2000,g  9.5,2.0
P/2003 HT15 (LINEAR),e,27.6372,81.4506,124.1215,4.623379,0.0991436,0.41814664,303.6465,08/27.0/2011,2000,g 14.0,2.0
P/2004 A1 (LONEOS),e,10.5586,124.9551,21.5532,7.939451,0.0440574,0.31068919,112.3490,08/27.0/2011,2000,g  6.5,4.0
P/2004 FY140 (LINEAR),e,2.1264,327.0971,239.3139,4.930110,0.0900366,0.16848921,232.6153,08/27.0/2011,2000,g 12.5,2.0
P/2004 H3 (Larsen),e,25.1281,220.9474,346.4961,3.905012,0.1277234,0.37254047,348.7205,08/27.0/2011,2000,g 13.0,4.0
P/2004 R3 (LINEAR-NEAT),e,7.9743,318.7264,5.5516,3.826884,0.1316546,0.44276200,347.7010,08/27.0/2011,2000,g 14.5,4.0
P/2004 T1 (LINEAR-NEAT),e,11.0453,51.4398,336.3922,3.470902,0.1524195,0.50799443,18.9250,08/27.0/2011,2000,g 12.5,4.0
P/2005 JN (Spacewatch),e,8.8503,70.7919,153.5563,3.503685,0.1502853,0.34757629,340.1889,08/27.0/2011,2000,g 14.0,4.0
P/2005 L1 (McNaught),e,7.7328,138.2979,149.9724,3.984414,0.1239245,0.20791681,258.1989,08/27.0/2011,2000,g  9.5,4.0
C/2005 L3 (McNaught),h,01/16.9857/2008,139.4260,288.8090,47.2004,1.001314,5.591441,2000,4.0,4.0
P/2005 RV25 (LONEOS-Christensen),e,9.8958,246.8739,191.1333,4.316066,0.1099188,0.16781418,192.8722,08/27.0/2011,2000,g  9.5,4.0
C/2005 S4 (McNaught),h,07/20.8998/2007,107.9433,318.3273,31.6694,1.000613,5.857776,2000,5.0,4.0
P/2005 SB216 (LONEOS),e,24.1108,1.6618,83.2696,7.100390,0.0520932,0.46472487,86.3229,08/27.0/2011,2000,g 12.0,2.0
P/2006 F1 (Kowalski),e,21.2751,124.7578,186.6185,4.673892,0.0975407,0.11791786,125.5845,08/27.0/2011,2000,g  8.0,4.0
C/2006 OF2 (Broughton),h,09/16.0991/2008,30.1321,318.4677,95.7051,1.002195,2.432721,2000,5.5,4.0
C/2006 Q1 (McNaught),e,59.0548,199.5707,344.2629,1600,0.0000154,0.99827535,0.0000,07/03.4464/2008,2000,g  5.0,4.0
C/2006 S3 (LONEOS),h,04/16.5046/2012,166.0327,38.3698,140.1483,1.002838,5.130879,2000,2.0,4.0
P/2006 T1 (Levy),e,18.2629,279.7481,179.6233,3.033560,0.1865414,0.66793221,334.1592,08/27.0/2011,2000,g 10.5,4.0
C/2006 W3 (Christensen),h,07/06.6732/2009,127.0666,113.6023,133.5608,1.000164,3.127664,2000,5.0,4.0
C/2007 B2 (Skiff),e,27.5025,14.8031,206.1664,614.9514,0.0000646,0.99515340,0.0000,08/20.4383/2008,2000,g  6.0,4.0
C/2007 D1 (LINEAR),e,41.5372,171.0798,339.8877,1369,0.0000195,0.99358624,0.0000,06/13.4559/2007,2000,g  3.5,4.0
C/2007 G1 (LINEAR),h,11/16.0527/2008,88.2903,79.0251,223.9881,1.001158,2.647890,2000,5.5,4.0
P/2007 H1 (McNaught),e,11.8679,144.3520,202.8369,3.673319,0.1399961,0.37783345,205.7444,08/27.0/2011,2000,g 10.0,4.0
C/2007 M1 (McNaught),e,139.7160,326.8371,52.7831,3685,0.0000044,0.99797095,0.0000,08/14.0388/2008,2000,g  6.0,4.0
C/2007 Q3 (Siding Spring),e,65.6541,149.3919,2.0403,6215,0.0000020,0.99963798,0.0000,10/07.1311/2009,2000,g  4.5,4.0
P/2007 R1 (Larson),e,7.8742,181.6337,175.5996,6.043892,0.0663329,0.27819121,96.9433,08/27.0/2011,2000,g  8.0,4.0
C/2007 S2 (Lemmon),e,16.8576,296.1425,210.3110,12.50718,0.0222826,0.55616012,24.0344,08/27.0/2011,2000,g  6.5,4.0
C/2007 VO53 (Spacewatch),h,04/26.7497/2010,86.9949,59.7200,75.0574,1.000446,4.843068,2000,7.0,4.0
P/2008 CL94 (Lemmon),e,8.3559,33.4561,80.8089,6.154812,0.0645479,0.12057293,122.3632,08/27.0/2011,2000,g  8.0,4.0
C/2008 E1 (Catalina),e,35.0464,189.0020,270.0700,10.73902,0.0280064,0.55040271,31.0530,08/27.0/2011,2000,g  7.0,4.0
C/2008 E3 (Garradd),e,105.0655,105.7252,218.1842,5424,0.0000025,0.99898000,0.0000,08/02.9693/2008,2000,g  6.0,4.0
C/2008 FK75 (Lemmon-Siding Spring),h,09/29.4191/2010,61.1760,218.2694,80.4478,1.002151,4.511405,2000,5.0,4.0
P/2008 J2 (Beshore),e,10.2775,97.8159,131.3411,3.462839,0.1529521,0.31436084,191.5280,08/27.0/2011,2000,g  9.0,4.0
P/2008 O2 (McNaught),e,9.5180,325.8593,27.5701,4.488720,0.1036383,0.15202889,88.8301,08/27.0/2011,2000,g  9.0,4.0
C/2008 P1 (Garradd),h,07/23.1896/2009,64.3138,357.6850,11.9327,1.001158,3.899003,2000,7.0,4.0
C/2008 S3 (Boattini),h,06/07.9283/2011,162.7053,54.9453,40.0008,1.000831,8.017927,2000,4.0,4.0
C/2008 T2 (Cardinal),e,56.3262,309.6748,215.8530,3966,0.0000039,0.99969691,0.0000,06/13.0737/2009,2000,g  6.0,4.0
P/2008 Y3 (McNaught),e,38.8315,262.8777,238.1904,8.018972,0.0434036,0.44742624,41.5752,08/27.0/2011,2000,g  8.5,4.0
C/2009 F2 (McNaught),e,59.3806,214.0587,336.2861,335.5213,0.0001604,0.98249561,0.0000,11/13.5417/2009,2000,g  6.0,4.0
C/2009 F4 (McNaught),h,12/31.8634/2011,79.3468,53.5823,260.3818,1.001920,5.454747,2000,3.0,4.0
C/2009 F6 (Yi-SWAN),e,85.7461,278.6126,129.7646,485.2365,0.0000922,0.99737419,0.0000,05/07.3513/2009,2000,g  6.0,4.0
C/2009 K3 (Beshore),p,01/09.266/2011,146.680,251.413,3.90156,0.032,2000,8.5,4.0
C/2009 K5 (McNaught),h,04/29.9352/2010,103.8814,257.8580,66.1687,1.000501,1.422654,2000,7.5,4.0
C/2009 P1 (Garradd),h,12/23.6735/2011,106.1776,325.9971,90.7457,1.001011,1.550544,2000,4.0,4.0
C/2009 P2 (Boattini),h,02/12.5575/2010,163.4589,60.4686,76.3070,1.001007,6.546171,2000,6.0,4.0
C/2009 R1 (McNaught),h,07/02.6780/2010,77.0340,322.5928,130.6897,1.000286,0.404744,2000,8.0,4.0
C/2009 S3 (Lemmon),h,12/11.0616/2011,60.3848,225.1323,129.7452,1.001460,6.474633,2000,6.5,4.0
C/2009 T1 (McNaught),e,89.8876,54.4151,282.5782,2311,0.0000089,0.99730760,0.0000,10/08.5791/2009,2000,g  6.5,4.0
C/2009 U5 (Grauer),h,06/22.2144/2010,25.4604,121.1493,23.8032,1.000815,6.093909,2000,7.0,4.0
C/2009 UG89 (Lemmon),h,12/16.3090/2010,130.1008,321.0166,60.6635,1.008454,3.931178,2000,9.0,4.0
C/2009 W2 (Boattini),e,164.4886,199.5885,121.4256,3753,0.0000043,0.99815882,0.0000,05/02.7782/2010,2000,g  7.0,4.0
C/2009 Y1 (Catalina),e,107.3051,160.2808,127.3947,382.1337,0.0001319,0.99340402,0.0000,01/28.9043/2011,2000,g  9.0,4.0
P/2010 A2 (LINEAR),e,5.2563,320.2621,133.1956,2.290435,0.2843330,0.12479211,179.1973,08/27.0/2011,2000,g 15.5,4.0
C/2010 B1 (Cardinal),e,101.9762,277.2133,211.5347,2747,0.0000068,0.99892913,0.0000,02/07.1069/2011,2000,g  7.5,4.0
P/2010 C1 (Scotti),e,9.1383,142.0106,3.5623,7.071202,0.0524160,0.25994816,33.2602,08/27.0/2011,2000,g  9.5,4.0
C/2010 D3 (WISE),e,76.4048,255.2298,304.6490,17417,0.0000004,0.99975615,0.0000,09/03.9576/2010,2000,g  9.0,4.0
C/2010 D4 (WISE),e,105.6624,266.8183,44.4865,64.55042,0.0019004,0.88926916,1.6710,08/27.0/2011,2000,g  6.5,4.0
C/2010 F3 (Scotti),e,4.6473,157.4038,31.2004,62.44678,0.0019973,0.91279285,0.7750,08/27.0/2011,2000,g  8.5,4.0
C/2010 FB87 (WISE-Garradd),e,107.6242,89.9033,265.0272,296.1937,0.0001933,0.99040207,0.0000,11/07.3823/2010,2000,g 10.0,4.0
C/2010 G2 (Hill),e,103.7454,246.7811,137.4256,96.32243,0.0010426,0.97943587,0.0000,09/02.0510/2011,2000,g  8.0,4.0
C/2010 G3 (WISE),e,108.2605,313.7358,75.2128,3886,0.0000041,0.99873693,0.0000,04/11.1808/2010,2000,g  8.5,4.0
P/2010 H2 (Vales),e,14.2567,64.3089,129.9167,3.847167,0.1306148,0.19246810,70.1037,08/27.0/2011,2000,g  6.0,4.0
P/2010 H4 (Scotti),e,2.3220,44.8290,179.6582,6.597569,0.0581605,0.26795647,25.2530,08/27.0/2011,2000,g 10.5,4.0
P/2010 H5 (Scotti),e,14.0893,24.9003,174.8119,7.134983,0.0517148,0.15561740,25.8973,08/27.0/2011,2000,g 13.0,2.0
C/2010 J2 (McNaught),e,125.8557,311.8052,4.6475,10607,0.0000009,0.99968064,0.0000,06/03.9824/2010,2000,g  9.0,4.0
P/2010 J3 (McMillan),e,13.2528,106.6401,157.4292,9.000029,0.0365038,0.72713511,13.4445,08/27.0/2011,2000,g 11.0,4.0
P/2010 J5 (McNaught),e,7.3563,65.6694,150.0496,4.105009,0.1185040,0.08691834,78.3119,08/27.0/2011,2000,g 10.0,4.0
C/2010 KW7 (WISE),e,147.0644,104.7686,332.3297,99.29956,0.0009961,0.97410921,0.0000,10/11.3735/2010,2000,g 15.0,2.0
C/2010 L3 (Catalina),h,11/10.1822/2010,102.6355,38.2696,121.7580,1.000331,9.882749,2000,4.5,4.0
C/2010 M1 (Gibbs),p,02/07.840/2012,78.373,265.318,2.29869,82.150,2000,9.0,4.0
C/2010 R1 (LINEAR),h,05/19.1833/2012,156.9347,343.6354,114.5129,1.003344,5.621039,2000,6.0,4.0
P/2010 R2 (La Sagra),e,21.4095,270.6533,59.2473,3.096703,0.1808651,0.15370054,77.5378,08/27.0/2011,2000,g 13.0,4.0
C/2010 S1 (LINEAR),h,05/20.2593/2013,125.3361,93.4400,118.5943,1.000072,5.901491,2000,3.5,4.0
P/2010 T1 (McNaught),e,32.5153,129.9998,220.5517,4.680606,0.0973309,0.31313114,29.7702,08/27.0/2011,2000,g 11.0,4.0
P/2010 T2 (PANSTARRS),e,8.0266,59.5920,356.1587,5.515126,0.0760976,0.31954444,3.5774,08/27.0/2011,2000,g 11.5,4.0
P/2010 U1 (Boattini),e,8.2562,281.2934,89.1037,6.615545,0.0579236,0.25866663,29.9428,08/27.0/2011,2000,g  9.5,4.0
P/2010 U2 (Hill),e,16.8606,357.1486,44.2536,4.272924,0.1115877,0.40252202,32.4354,08/27.0/2011,2000,g 13.0,4.0
P/2010 V1 (Ikeya-Murakami),e,9.3793,3.8022,152.2663,3.069903,0.1832386,0.48623749,58.2545,08/27.0/2011,2000,g  8.0,4.0
P/2010 WK (LINEAR),e,11.4789,11.4893,40.8685,5.733531,0.0717911,0.69207783,22.3424,08/27.0/2011,2000,g 14.5,2.0
C/2010 X1 (Elenin),h,09/10.7231/2011,1.8393,323.2271,343.8056,1.000029,0.482458,2000,10.0,4.0
C/2011 A3 (Gibbs),e,26.0742,124.8924,141.1638,1173,0.0000245,0.99800083,0.0000,12/16.0802/2011,2000,g 10.0,4.0
C/2011 C1 (McNaught),e,16.8251,192.4382,84.4811,362.7599,0.0001427,0.99756473,0.0000,04/18.0105/2011,2000,g 15.5,4.0
P/2011 C2 (Gibbs),e,10.9110,12.2031,160.7405,7.368637,0.0492746,0.26895051,353.3084,08/27.0/2011,2000,g  9.0,4.0
